STARLINK-30983          
1 58514U 23191G   26068.50261324  .00008781  00000+0  33680-3 0  9990
2 58514  42.9994 104.4084 0000775 285.9058  74.1707 15.26724672125094
TRANSPORTER-12 OBJECT BA
1 62657U 25009BA  26068.70118713  .00011330  00000+0  42733-3 0  9991
2 62657  97.3985 151.1390 0000403 234.6623 125.4579 15.27214003 63739
